[{"OBJECT_NAME":"STARLINK-31012","OBJECT_ID":"2023-192A","EPOCH":"2026-03-09T05:03:33.506208","MEAN_MOTION":15.30194258,"ECCENTRICITY":0.00013249,"INCLINATION":53.1617,"RA_OF_ASC_NODE":64.8527,"ARG_OF_PERICENTER":92.8597,"MEAN_ANOMALY":267.2556,"EPHEMERIS_TYPE":0,"CLASSIFICATION_TYPE":"U","NORAD_CAT_ID":58531,"ELEMENT_SET_NO":999,"REV_AT_EPOCH":12591,"BSTAR":2.8406329e-5,"MEAN_MOTION_DOT":4.82e-6,"MEAN_MOTION_DDOT":0},{"OBJECT_NAME":"CZ-4B DEB","OBJECT_ID":"2006-015E","EPOCH":"2026-03-09T20:34:53.082912","MEAN_MOTION":15.19885806,"ECCENTRICITY":0.00461993,"INCLINATION":98.0565,"RA_OF_ASC_NODE":201.7753,"ARG_OF_PERICENTER":62.4887,"MEAN_ANOMALY":298.1031,"EPHEMERIS_TYPE":0,"CLASSIFICATION_TYPE":"U","NORAD_CAT_ID":29538,"ELEMENT_SET_NO":999,"REV_AT_EPOCH":5389,"BSTAR":0.0022587151,"MEAN_MOTION_DOT":0.00050103,"MEAN_MOTION_DDOT":0}]
